STARLINK-32391          
1 61855U 24202L   26068.51963344 -.00005904  00000+0 -20506-3 0  9997
2 61855  43.0046 238.7795 0002418 308.2323  51.8311 15.27594358 75304
TRANSPORTER-12 OBJECT BA
1 62657U 25009BA  26068.70118713  .00011330  00000+0  42733-3 0  9991
2 62657  97.3985 151.1390 0000403 234.6623 125.4579 15.27214003 63739
